SB KEPS @ AMSAT  $ORB11265.N
2Line Orbital Elements 11265.AMSAT

HR AMSAT ORBITAL ELEMENTS FOR AMATEUR SATELLITES IN NASA FORMAT
FROM WA5QGD FORT WORTH,TX September 22, 2011
Send Subscribe/unsubscribe to KEPS at http://www.amsat.org/mailman/listinfo/keps
BID: ORB11265.N

DECODE 2-LINE ELSETS WITH THE FOLLOWING KEY:
1 AAAAAU 00  0  0 BBBBB.BBBBBBBB  .CCCCCCCC  00000-0  00000-0 0  DDDZ
2 AAAAA EEE.EEEE FFF.FFFF GGGGGGG HHH.HHHH III.IIII JJ.JJJJJJJJKKKKKZ
KEY: A-CATALOGNUM B-EPOCHTIME C-DECAY D-ELSETNUM E-INCLINATION F-RAAN
G-ECCENTRICITY H-ARGPERIGEE I-MNANOM J-MNMOTION K-ORBITNUM Z-CHECKSUM

TO ALL RADIO AMATEURS BT

AO-07
1 07530U 74089B   11265.59920252 -.00000027  00000-0  10000-3 0  1864
2 07530 101.3971 268.3077 0012098 087.6901 272.5549 12.53584049686390
FO-29
1 24278U 96046B   11264.78382260 -.00000035  00000-0  90978-6 0  6690
2 24278 098.5631 035.9550 0350968 007.0752 353.5162 13.52964907745520
SO-33
1 25509U 98061B   11265.44849248  .00000186  00000-0  26315-4 0   596
2 25509 031.4334 054.1828 0353278 012.1572 348.7335 14.28447688674197
RS-22
1 27939U 03042A   11265.64282711  .00000471  00000-0  98981-4 0  6522
2 27939 097.8340 114.9305 0014352 040.2626 319.9621 14.63650892426592
VO-52
1 28650U 05017B   11265.78459716  .00000739  00000-0  98489-4 0  9054
2 28650 097.6327 304.5057 0026355 199.5998 160.4183 14.82192102345209
SO-67
1 35870U 09049F   11265.79293355  .00004425  00000-0  20157-3 0  2449
2 35870 097.2716 305.8667 0003630 061.1191 070.2364 15.21163977111774
HO-68
1 36122U 09072B   11265.68071932 -.00000044  00000-0  00000 0 0  7641
2 36122 100.4053 324.9716 0007563 005.3963 354.7229 13.16288198 85066
UO-11
1 14781U 84021B   11265.22435624  .00000686  00000-0  97574-4 0  6598
2 14781 097.9952 321.5760 0008747 178.0235 182.1010 14.80043325480140
AO-16
1 20439U 90005D   11265.77838699  .00000168  00000-0  78386-4 0  2864
2 20439 098.3935 212.1772 0010009 232.9485 127.0788 14.31942073131587
LO-19
1 20442U 90005G   11265.63302803  .00000105  00000-0  54481-4 0  2047
2 20442 098.3566 216.0192 0011227 224.2678 135.7612 14.32165999131746
AO-27
1 22825U 93061C   11264.89243158  .00000188  00000-0  90602-4 0  9181
2 22825 098.5426 207.3884 0010152 353.8578 006.2452 14.29367133938003
IO-26
1 22826U 93061D   11264.87410146  .00000157  00000-0  78091-4 0  6645
2 22826 098.5336 207.8131 0009110 351.9291 008.1742 14.29629539938124
GO-32
1 25397U 98043D   11265.70446583  .00000120  00000-0  71101-4 0  5850
2 25397 098.3363 253.0925 0001371 036.0228 324.1032 14.23220222685834
NO-44
1 26931U 01043C   11265.00150297 -.00000145  00000-0 -24300-4 0  8543
2 26931 067.0498 094.0593 0005032 260.2318 099.8222 14.29680718520767
SO-50
1 27607U 02058C   11265.50323327  .00000736  00000-0  13349-3 0  5712
2 27607 064.5593 031.9357 0080214 300.9038 058.4180 14.71824252470410
CO-55
1 27844U 03031E   11265.56921966  .00000203  00000-0  11438-3 0  2045
2 27844 098.7078 272.8644 0008875 280.4489 079.5699 14.20846793426744
CO-57
1 27848U 03031J   11263.55578259 -.00000030  00000-0  63150-5 0 01519
2 27848 098.7132 270.1043 0009235 294.2930 065.7264 14.20621714426400
AO-51
1 28375U 04025K   11265.47689863  .00000089  00000-0  39312-4 0   778
2 28375 098.1093 238.8640 0084027 134.4365 226.3755 14.40781426380070
CP3
1 31129U 07012N   11264.72771562  .00000720  00000-0  17566-3 0  9747
2 31129 097.8967 283.3495 0100350 240.4686 118.6429 14.52569956234852
CO-65
1 32785U 08021C   11264.69148808  .00001649  00000-0  21338-3 0 01053
2 32785 097.8381 326.6927 0014038 218.9613 141.0574 14.82136634183837
PRISM
1 33493U 09002B   11265.80171220  .00003222  00000-0  41175-3 0  9854
2 33493 098.1377 035.9190 0020894 085.9357 274.4266 14.81977695143978
SOHLA-1
1 33496U 09002E   11265.41129313  .00000560  00000-0  10231-3 0  5239
2 33496 098.0876 014.2981 0006668 166.4011 193.7370 14.69665809142769
TISAT-1
1 36799U 10035E   11265.72086202  .00001832  00000-0  24462-3 0  2577
2 36799 098.0933 334.9024 0014422 326.4517 033.5785 14.80742022 64746
STUDSAT
1 36801U 10035G   11264.77032399  .00005149  00000-0  66937-3 0 02481
2 36801 098.0970 333.8780 0012987 317.9108 042.1105 14.81077133064593
OOREOS
1 37224U 10062C   11153.29456974  .00000492  00000-0  77478-4 0 01796
2 37224 071.9726 071.8135 0020315 307.7637 052.1684 14.77036357028673
FO-69
1 37227U 0        11264.39249380  .00005111  00000-0  73422-3 0 01365
2 37227 071.9874 187.1327 0022735 136.5388 223.7571 14.76684509023520
NANOSALD
1 37361U 0        11242.25215765  .00180112  00000-0  75811-2 0 03512
2 37361 071.9735 221.4469 0025730 245.3422 114.7284 15.22200108033319
FO-70
1 37380U 0        11264.35373356  .00000771  00000-0  11852-3 0 02763
2 37380 071.9727 187.4375 0016009 101.8133 258.4820 14.76418086045052
NOAA-10
1 16969U 86073A   11265.14959244 -.00000036  00000-0  31929-5 0  6444
2 16969 098.6125 293.5888 0011645 304.7598 055.2482 14.27477965301484
NOAA-11
1 19531U 88089A   11265.22137254  .00000266  00000-0  16018-3 0  6421
2 19531 098.7484 350.8342 0010449 273.6612 086.3376 14.14925129186478
NOAA-12
1 21263U 91032A   11265.49540040  .00000133  00000-0  74903-4 0  1334
2 21263 098.7477 283.1601 0011510 265.5622 094.4243 14.25741038 58278
MET-3/5
1 21655U 91056A   11264.91772332  .00000051  00000-0  10000-3 0 02160
2 21655 082.5605 342.4314 0012000 275.9372 084.0332 13.17030169966457
MET-2/21
1 22782U 93055A   11265.87866611  .00000125  00000-0  99431-4 0  2093
2 22782 082.5450 245.3639 0022437 180.7604 179.3545 13.83661993912064
OKEAN-4
1 23317U 94066A   11265.85676737  .00000846  00000-0  10034-3 0  6733
2 23317 082.5383 281.9339 0022650 152.3794 207.8630 14.83163579915028
NOAA-14
1 23455U 94089A   11265.48526339  .00000059  00000-0  54585-4 0  6187
2 23455 098.8466 347.1304 0009693 008.6402 351.4938 14.13833141862829
NOAA-15
1 25338U 98030A   11265.13660244  .00000298  00000-0  14604-3 0  9562
2 25338 098.6656 249.9977 0010872 165.5305 194.6212 14.24952652694535
RESURS
1 25394U 98043A   11265.89992979  .00000007  00000-0  20629-4 0  8982
2 25394 098.3055 263.5647 0001138 351.9140 008.2023 14.24240177686214
FENGYUN1
1 25730U 99025A   11265.19301327  .00001538  00000-0  91343-3 0  4279
2 25730 098.8249 224.2926 0025481 043.2670 317.0497 14.08808480636724
OKEAN-0
1 25860U 99039A   11264.97625973  .00000571  00000-0  94630-4 0 04188
2 25860 097.8963 228.8214 0001855 053.8740 306.2639 14.73840600654915
NOAA-16
1 26536U 00055A   11265.11243592 -.00000168  00000-0 -65672-4 0  4390
2 26536 099.1336 297.5903 0011237 118.5342 241.6964 14.12644497567044
NOAA-17
1 27453U 02032A   11265.33216267  .00000275  00000-0  13695-3 0  4269
2 27453 098.3715 300.5411 0010989 221.7615 138.2720 14.24315331480485
NOAA-18
1 28654U 05018A   11265.35554531  .00000483  00000-0  29065-3 0  9041
2 28654 099.0061 216.7863 0014161 188.0146 172.0817 14.11516807326636
NOAA-19
1 33591U 09005A   11265.37434065  .00000312  00000-0  19680-3 0   952
2 33591 098.8330 203.9216 0015002 062.7869 297.4817 14.11207548135092
HUBBLE
1 20580U 90037B   11263.03974435  .00002083  00000-0  14457-3 0 08370
2 20580 028.4748 116.7741 0003186 053.9835 306.1222 15.01521643973922
ISS
1 25544U 98067A   11265.88001200  .00021191  00000-0  24844-3 0  1164
2 25544 051.6420 028.9641 0010562 224.2650 226.0317 15.61402230736163
CO-58
1 28895U 05043F   11264.89441820  .00000748  00000-0  16438-3 0 09819
2 28895 097.9506 137.4699 0016598 277.3777 082.5537 14.60180347314358
FALCON
1 30776U 07006E   11265.77364176  .00004216  00000-0  29378-3 0  1764
2 30776 035.4331 113.4711 0002143 250.5313 109.5175 15.05007484249750
MAST
1 31126U 07012K   11265.56352826  .00000492  00000-0  12107-3 0  2650
2 31126 097.8918 287.2676 0093457 227.2369 132.0926 14.53808475235237
CAPE1
1 31130U 07012P   11265.57105138  .00000630  00000-0  15510-3 0  2787
2 31130 097.8970 283.9052 0101046 238.3825 120.7437 14.52471771234778
COMPASS
1 32787U 08021E   11265.67167202  .00002171  00000-0  27555-3 0   982
2 32787 097.8382 327.6323 0014788 215.3764 144.6471 14.82634521184004
AAUSAT2
1 32788U 08021F   11265.08287817  .00002832  00000-0  35574-3 0   886
2 32788 097.8369 327.3089 0014029 219.2073 140.8198 14.82835423183939
DO-64
1 32789U 08021G   11264.72092649  .00003576  00000-0  44123-3 0  1038
2 32789 097.8475 328.1541 0014554 216.2335 143.7837 14.83421403183898
CO-66
1 32791U 08021J   11265.70966658  .00001467  00000-0  18986-3 0   911
2 32791 097.8388 327.5765 0015027 214.5111 145.5094 14.82290342183951
RS-30
1 32953U 08025A   11265.61946418  .00000010  00000-0  00000 0 0  1050
2 32953 082.4982 102.1540 0018592 171.6744 188.4645 12.43015157151197
TACSAT-3
1 35001U 09028A   11265.44533200  .00039876  00000-0  62922-3 0  7023
2 35001 040.4537 300.8300 0019159 218.6334 141.3115 15.52515669132186
PHARMSAT
1 35002U 09028B   11265.51949390  .00028794  00000-0  47373-3 0  6550
2 35002 040.4699 298.8814 0021985 227.3559 132.5407 15.51401797132213
HAWKSAT1
1 35003U 09028C   11265.86859287  .00496513  99989-4  14993-2 0  7787
2 35003 040.4471 245.8862 0010709 221.3781 138.6263 15.91175029132824
CP6
1 35004U 09028D   11247.64656856  .16152067  73217-5  10011-2 0  7842
2 35004 040.4403 342.9642 0002956 038.0069 322.2231 16.41039951130139
METEOR-M
1 35865U 09049A   11265.75620093  .00000177  00000-0  10000-3 0  7487
2 35865 098.6955 319.5677 0003111 096.3068 263.8427 14.21842282104457
RS-38
1 35869U 09049E   11265.67375643  .00000177  00000-0  10000-3 0  7244
2 35869 098.6926 319.5162 0005217 102.0818 258.0898 14.22022361104452
ARISSAT1
1 37772U 98067CK  11265.72072316  .00072740  00000-0  74554-3 0  1528
2 37772 051.6396 029.2950 0010444 238.8320 259.1825 15.64233989  7722
/EX
